start=new Date('2021-12-11T00:00:00.000Z').valueOf();
sats=[{"EPHEMERIS_TYPE":"0","SITE":"AFETR","CLASSIFICATION_TYPE":"U","OBJECT_NAME":"STARLINK-1057","MEAN_MOTION":"15.06397176","APOAPSIS":"548.526","RCS_SIZE":"LARGE","MEAN_MOTION_DDOT":"0.0000000000000","NORAD_CAT_ID":"44762","ECCENTRICITY":"0.00018830","ARG_OF_PERICENTER":"50.3285","FILE":"3237005","EPOCH":"2021-12-10T15:59:12.024960","RA_OF_ASC_NODE":"324.9424","LAUNCH_DATE":"2019-11-11","TLE_LINE2":"2 44762  53.0541 324.9424 0001883  50.3285 309.7870 15.06397176114841","OBJECT_TYPE":"PAYLOAD","SEMIMAJOR_AXIS":"6925.357","ELEMENT_SET_NO":"999","BSTAR":"0.00008078000000","REV_AT_EPOCH":"11484","TIME_SYSTEM":"UTC","MEAN_ANOMALY":"309.7870","PERIAPSIS":"545.918","CENTER_NAME":"EARTH","OBJECT_ID":"2019-074BB","COUNTRY_CODE":"US","PERIOD":"95.592","REF_FRAME":"TEME","INCLINATION":"53.0541","GP_ID":"191457056","DECAY_DATE":null,"MEAN_ELEMENT_THEORY":"SGP4","TLE_LINE1":"1 44762U 19074BB  21344.66611140  .00000922  00000-0  80780-4 0  9993","MEAN_MOTION_DOT":"0.00000922"},{"RA_OF_ASC_NODE":"346.0539","LAUNCH_DATE":"2019-11-11","TLE_LINE2":"2 44763  53.0561 346.0539 0001627  60.2194 299.8956 15.06399305114537","OBJECT_TYPE":"PAYLOAD","SEMIMAJOR_AXIS":"6925.351","ELEMENT_SET_NO":"999","NORAD_CAT_ID":"44763","ECCENTRICITY":"0.00016270","ARG_OF_PERICENTER":"60.2194","FILE":"3236672","EPOCH":"2021-12-10T10:06:14.211648","OBJECT_NAME":"STARLINK-1058","MEAN_MOTION":"15.06399305","APOAPSIS":"548.342","RCS_SIZE":"LARGE","MEAN_MOTION_DDOT":"0.0000000000000","EPHEMERIS_TYPE":"0","SITE":"AFETR","CLASSIFICATION_TYPE":"U","DECAY_DATE":null,"MEAN_ELEMENT_THEORY":"SGP4","TLE_LINE1":"1 44763U 19074BC  21344.42099782  .00000929  00000-0  81239-4 0  9997","MEAN_MOTION_DOT":"0.00000929","CENTER_NAME":"EARTH","OBJECT_ID":"2019-074BC","COUNTRY_CODE":"US","REF_FRAME":"TEME","PERIOD":"95.592","INCLINATION":"53.0561","GP_ID":"191424800","PERIAPSIS":"546.089","BSTAR":"0.00008123900000","REV_AT_EPOCH":"11453","TIME_SYSTEM":"UTC","MEAN_ANOMALY":"299.8956"},{"EPOCH":"2021-12-10T22:16:03.991008","FILE":"3237005","ARG_OF_PERICENTER":"68.2704","ECCENTRICITY":"0.00016010","NORAD_CAT_ID":"44764","ELEMENT_SET_NO":"999","SEMIMAJOR_AXIS":"6925.373","TLE_LINE2":"2 44764  53.0555 323.7750 0001601  68.2704 291.8455 15.06392179114881","OBJECT_TYPE":"PAYLOAD","LAUNCH_DATE":"2019-11-11","RA_OF_ASC_NODE":"323.7750","CLASSIFICATION_TYPE":"U","EPHEMERIS_TYPE":"0","SITE":"AFETR","MEAN_MOTION_DDOT":"0.0000000000000","RCS_SIZE":"LARGE","APOAPSIS":"548.346","MEAN_MOTION":"15.06392179","OBJECT_NAME":"STARLINK-1059","INCLINATION":"53.0555","GP_ID":"191456555","REF_FRAME":"TEME","PERIOD":"95.593","COUNTRY_CODE":"US","CENTER_NAME":"EARTH","OBJECT_ID":"2019-074BD","MEAN_MOTION_DOT":"-0.00000652","TLE_LINE1":"1 44764U 19074BD  21344.92782397 -.00000652  00000-0 -24881-4 0  9999","MEAN_ELEMENT_THEORY":"SGP4","DECAY_DATE":null,"MEAN_ANOMALY":"291.8455","REV_AT_EPOCH":"11488","TIME_SYSTEM":"UTC","BSTAR":"-0.00002488100000","PERIAPSIS":"546.129"},{"APOAPSIS":"548.281","MEAN_MOTION_DDOT":"0.0000000000000","RCS_SIZE":"LARGE","OBJECT_NAME":"STARLINK-1060","MEAN_MOTION":"15.06397992","EPHEMERIS_TYPE":"0","SITE":"AFETR","CLASSIFICATION_TYPE":"U","SEMIMAJOR_AXIS":"6925.355","ELEMENT_SET_NO":"999","TLE_LINE2":"2 44765  53.0549 327.8517 0001532  66.9204 293.1946 15.06397992114747","OBJECT_TYPE":"PAYLOAD","LAUNCH_DATE":"2019-11-11","RA_OF_ASC_NODE":"327.8517","ARG_OF_PERICENTER":"66.9204","EPOCH":"2021-12-10T00:25:02.208288","FILE":"3236672","ECCENTRICITY":"0.00015320","NORAD_CAT_ID":"44765","PERIAPSIS":"546.159","MEAN_ANOMALY":"293.1946","BSTAR":"0.00007133300000","REV_AT_EPOCH":"11474","TIME_SYSTEM":"UTC","TLE_LINE1":"1 44765U 19074BE  21344.01738667  .00000781  00000-0  71333-4 0  9996","MEAN_ELEMENT_THEORY":"SGP4","MEAN_MOTION_DOT":"0.00000781","DECAY_DATE":null,"GP_ID":"191426302","INCLINATION":"53.0549","COUNTRY_CODE":"US","OBJECT_ID":"2019-074BE","CENTER_NAME":"EARTH","PERIOD":"95.592","REF_FRAME":"TEME"},{"REV_AT_EPOCH":"11458","TIME_SYSTEM":"UTC","BSTAR":"-0.00002000900000","MEAN_ANOMALY":"293.7896","PERIAPSIS":"546.261","PERIOD":"95.592","REF_FRAME":"TEME","COUNTRY_CODE":"US","CENTER_NAME":"EARTH","OBJECT_ID":"2019-074BF","INCLINATION":"53.0548","GP_ID":"191457557","DECAY_DATE":null,"MEAN_MOTION_DOT":"-0.00000579","TLE_LINE1":"1 44766U 19074BF  21344.74536120 -.00000579  00000-0 -20009-4 0  9998","MEAN_ELEMENT_THEORY":"SGP4","CLASSIFICATION_TYPE":"U","EPHEMERIS_TYPE":"0","SITE":"AFETR","MEAN_MOTION":"15.06396446","OBJECT_NAME":"STARLINK-1061","MEAN_MOTION_DDOT":"0.0000000000000","RCS_SIZE":"LARGE","APOAPSIS":"548.188","ECCENTRICITY":"0.00013910","NORAD_CAT_ID":"44766","EPOCH":"2021-12-10T17:53:19.207680","FILE":"3237005","ARG_OF_PERICENTER":"66.3239","TLE_LINE2":"2 44766  53.0548 344.5787 0001391  66.3239 293.7896 15.06396446114582","OBJECT_TYPE":"PAYLOAD","LAUNCH_DATE":"2019-11-11","RA_OF_ASC_NODE":"344.5787","ELEMENT_SET_NO":"999","SEMIMAJOR_AXIS":"6925.359"},{"TLE_LINE2":"2 44767  53.0550 344.6179 0001611  57.4619 302.6525 15.06395472114587","OBJECT_TYPE":"PAYLOAD","LAUNCH_DATE":"2019-11-11","RA_OF_ASC_NODE":"344.6179","SEMIMAJOR_AXIS":"6925.362","ELEMENT_SET_NO":"999","ECCENTRICITY":"0.00016110","NORAD_CAT_ID":"44767","ARG_OF_PERICENTER":"57.4619","EPOCH":"2021-12-10T17:42:42.248736","FILE":"3237005","OBJECT_NAME":"STARLINK-1062","MEAN_MOTION":"15.06395472","APOAPSIS":"548.343","MEAN_MOTION_DDOT":"0.0000000000000","RCS_SIZE":"LARGE","SITE":"AFETR","EPHEMERIS_TYPE":"0","CLASSIFICATION_TYPE":"U","DECAY_DATE":null,"TLE_LINE1":"1 44767U 19074BG  21344.73798899  .00000332  00000-0  41186-4 0  9995","MEAN_ELEMENT_THEORY":"SGP4","MEAN_MOTION_DOT":"0.00000332","COUNTRY_CODE":"US","OBJECT_ID":"2019-074BG","CENTER_NAME":"EARTH","PERIOD":"95.592","REF_FRAME":"TEME","INCLINATION":"53.0550","GP_ID":"191456305","PERIAPSIS":"546.112","BSTAR":"0.00004118600000","REV_AT_EPOCH":"11458","TIME_SYSTEM":"UTC","MEAN_ANOMALY":"302.6525"},{"BSTAR":"0.00007806600000","REV_AT_EPOCH":"11454","TIME_SYSTEM":"UTC","MEAN_ANOMALY":"301.0709","PERIAPSIS":"546.090","OBJECT_ID":"2019-074BH","CENTER_NAME":"EARTH","COUNTRY_CODE":"US","REF_FRAME":"TEME","PERIOD":"95.592","GP_ID":"191426052","INCLINATION":"53.0546","DECAY_DATE":null,"MEAN_ELEMENT_THEORY":"SGP4","TLE_LINE1":"1 44768U 19074BH  21344.42837346  .00000881  00000-0  78066-4 0  9999","MEAN_MOTION_DOT":"0.00000881","EPHEMERIS_TYPE":"0","SITE":"AFETR","CLASSIFICATION_TYPE":"U","OBJECT_NAME":"STARLINK-1063","MEAN_MOTION":"15.06399943","APOAPSIS":"548.337","RCS_SIZE":"LARGE","MEAN_MOTION_DDOT":"0.0000000000000","NORAD_CAT_ID":"44768","ECCENTRICITY":"0.00016220","ARG_OF_PERICENTER":"59.0439","FILE":"3236672","EPOCH":"2021-12-10T10:16:51.466944","RA_OF_ASC_NODE":"346.0131","LAUNCH_DATE":"2019-11-11","TLE_LINE2":"2 44768  53.0546 346.0131 0001622  59.0439 301.0709 15.06399943114547","OBJECT_TYPE":"PAYLOAD","SEMIMAJOR_AXIS":"6925.349","ELEMENT_SET_NO":"999"},{"REF_FRAME":"TEME","PERIOD":"92.318","COUNTRY_CODE":"US","CENTER_NAME":"EARTH","OBJECT_ID":"2019-074BJ","INCLINATION":"53.0577","GP_ID":"191457307","DECAY_DATE":null,"MEAN_MOTION_DOT":"0.00040908","TLE_LINE1":"1 44769U 19074BJ  21344.90379976  .00040908  00000-0  50385-3 0  9990","MEAN_ELEMENT_THEORY":"SGP4","REV_AT_EPOCH":"11519","TIME_SYSTEM":"UTC","BSTAR":"0.00050385000000","MEAN_ANOMALY":"15.7414","PERIAPSIS":"387.248","ECCENTRICITY":"0.00013210","NORAD_CAT_ID":"44769","EPOCH":"2021-12-10T21:41:28.299264","FILE":"3237005","ARG_OF_PERICENTER":"344.3557","LAUNCH_DATE":"2019-11-11","TLE_LINE2":"2 44769  53.0577 307.2016 0001321 344.3557  15.7414 15.59832926115195","OBJECT_TYPE":"PAYLOAD","RA_OF_ASC_NODE":"307.2016","ELEMENT_SET_NO":"999","SEMIMAJOR_AXIS":"6766.277","CLASSIFICATION_TYPE":"U","SITE":"AFETR","EPHEMERIS_TYPE":"0","MEAN_MOTION":"15.59832926","OBJECT_NAME":"STARLINK-1064","MEAN_MOTION_DDOT":"0.0000000000000","RCS_SIZE":"LARGE","APOAPSIS":"389.036"},{"INCLINATION":"53.0034","GP_ID":"191424551","REF_FRAME":"TEME","PERIOD":"95.402","CENTER_NAME":"EARTH","OBJECT_ID":"2019-074BK","COUNTRY_CODE":"US","MEAN_MOTION_DOT":"0.00003187","MEAN_ELEMENT_THEORY":"SGP4","TLE_LINE1":"1 44770U 19074BK  21344.48110980  .00003187  00000-0  21495-3 0  9991","DECAY_DATE":null,"MEAN_ANOMALY":"257.3959","REV_AT_EPOCH":"11461","TIME_SYSTEM":"UTC","BSTAR":"0.00021495000000","PERIAPSIS":"537.390","FILE":"3236672","EPOCH":"2021-12-10T11:32:47.886720","ARG_OF_PERICENTER":"102.7131","NORAD_CAT_ID":"44770","ECCENTRICITY":"0.00008960","ELEMENT_SET_NO":"999","SEMIMAJOR_AXIS":"6916.144","RA_OF_ASC_NODE":"338.9699","TLE_LINE2":"2 44770  53.0034 338.9699 0000896 102.7131 257.3959 15.09408164114615","OBJECT_TYPE":"PAYLOAD","LAUNCH_DATE":"2019-11-11","CLASSIFICATION_TYPE":"U","EPHEMERIS_TYPE":"0","SITE":"AFETR","RCS_SIZE":"LARGE","MEAN_MOTION_DDOT":"0.0000000000000","APOAPSIS":"538.629","MEAN_MOTION":"15.09408164","OBJECT_NAME":"STARLINK-1065"},{"PERIAPSIS":"545.971","MEAN_ANOMALY":"296.5272","BSTAR":"0.00010864000000","REV_AT_EPOCH":"11459","TIME_SYSTEM":"UTC","TLE_LINE1":"1 44771U 19074BL  21344.81539272  .00001337  00000-0  10864-3 0  9991","MEAN_ELEMENT_THEORY":"SGP4","MEAN_MOTION_DOT":"0.00001337","DECAY_DATE":null,"INCLINATION":"53.0551","GP_ID":"191455805","COUNTRY_CODE":"US","CENTER_NAME":"EARTH","OBJECT_ID":"2019-074BL","PERIOD":"95.592","REF_FRAME":"TEME","APOAPSIS":"548.422","MEAN_MOTION_DDOT":"0.0000000000000","RCS_SIZE":"LARGE","OBJECT_NAME":"STARLINK-1067","MEAN_MOTION":"15.06405540","EPHEMERIS_TYPE":"0","SITE":"AFETR","CLASSIFICATION_TYPE":"U","SEMIMAJOR_AXIS":"6925.332","ELEMENT_SET_NO":"999","TLE_LINE2":"2 44771  53.0551 344.2750 0001769  63.5898 296.5272 15.06405540114594","LAUNCH_DATE":"2019-11-11","OBJECT_TYPE":"PAYLOAD","RA_OF_ASC_NODE":"344.2750","ARG_OF_PERICENTER":"63.5898","EPOCH":"2021-12-10T19:34:09.931008","FILE":"3237005","ECCENTRICITY":"0.00017690","NORAD_CAT_ID":"44771"}];
